OBJECT_NAME,OBJECT_ID,EPOCH,MEAN_MOTION,ECCENTRICITY,INCLINATION,RA_OF_ASC_NODE,ARG_OF_PERICENTER,MEAN_ANOMALY,EPHEMERIS_TYPE,CLASSIFICATION_TYPE,NORAD_CAT_ID,ELEMENT_SET_NO,REV_AT_EPOCH,BSTAR,MEAN_MOTION_DOT,MEAN_MOTION_DDOT
BEIDOU-3S IGSO-1S (C31),2015-019A,2026-06-16T16:24:52.902432,1.00249872,.00390734,49.1964,295.4674,191.1195,116.0543,0,U,40549,999,4106,0,-.175E-5,0
GPS BIIF-10 (PRN 08),2015-033A,2026-06-17T05:18:18.066816,2.00556423,.01151002,53.9824,267.0852,30.2366,330.4645,0,U,40730,999,7999,0,-.25E-6,0
BEIDOU-3S M2S (C58),2015-037A,2026-06-16T18:52:24.392352,1.86231981,.00083908,54.8718,302.0606,259.2390,100.6546,0,U,40748,999,7411,0,-.71E-6,0
BEIDOU-3S M1S (C57),2015-037B,2026-06-16T10:58:00.732288,1.86254753,.00034478,54.8681,302.0590,61.7018,298.3200,0,U,40749,999,7411,0,-.7E-6,0
GSAT0205 (GALILEO 9),2015-045A,2026-05-24T07:17:44.873376,1.67409242,.00064058,54.9357,222.4171,263.0112,96.9692,0,U,40889,999,6656,0,-.14E-6,0
GSAT0206 (GALILEO 10),2015-045B,2026-06-15T16:44:29.456160,1.70473766,.00017913,54.9450,221.6455,333.6365,26.4548,0,U,40890,999,6701,0,.52E-6,0
BEIDOU-3S IGSO-2S (C56),2015-053A,2026-06-17T15:18:28.157760,1.00258664,.00656307,49.2206,258.7767,192.0254,139.8497,0,U,40938,999,3935,0,-.132E-5,0
GPS BIIF-11 (PRN 10),2015-062A,2026-06-16T06:43:11.561088,2.00566870,.0111891,56.9588,30.8461,231.0569,127.9967,0,U,41019,999,7781,0,-.69E-6,0
GSAT-15 (GAGAN/PRN 139),2015-065A,2026-06-17T15:27:13.913856,1.00272214,.00042255,0.0687,265.0590,164.0387,162.1043,0,U,41028,999,3880,0,-.263E-5,0
GSAT0209 (GALILEO 12),2015-079A,2026-06-17T00:55:49.272672,1.70473635,.00052819,55.8274,101.2661,344.0306,15.9200,0,U,41174,999,6477,0,-.12E-6,0
GSAT0208 (GALILEO 11),2015-079B,2026-06-16T02:03:40.443264,1.70473579,.00048641,55.8253,101.2890,343.1626,16.7832,0,U,41175,999,6517,0,-.13E-6,0
IRNSS-1E,2016-003A,2026-06-16T15:15:10.215360,1.00278289,.00232847,33.2270,59.7572,150.0842,35.4479,0,U,41241,999,3807,0,-.321E-5,0
GPS BIIF-12 (PRN 32),2016-007A,2026-06-10T21:16:03.932832,2.00551966,.00960515,55.5202,89.7095,247.3753,111.5952,0,U,41328,999,7571,0,-.12E-6,0
COSMOS 2514 (751),2016-008A,2026-06-17T06:50:37.824000,2.13102573,.0011293,65.0216,313.0031,198.0491,161.8973,0,U,41330,999,8062,0,-.54E-6,0
BEIDOU-2 IGSO-6 (C13),2016-021A,2026-06-16T02:58:21.700128,1.00259474,.00571844,60.2243,38.0497,231.4868,132.3999,0,U,41434,999,3747,0,-.15E-5,0
IRNSS-1G,2016-027A,2026-06-16T18:45:45.328896,1.00266276,.00075465,5.1970,97.4824,355.0148,223.4807,0,U,41469,999,3717,0,-.34E-5,0
GSAT0211 (GALILEO 14),2016-030A,2026-06-14T10:48:10.446624,1.70473900,.0002887,55.0959,221.7703,323.8922,36.1904,0,U,41549,999,6262,0,.59E-6,0
GSAT0210 (GALILEO 13),2016-030B,2026-06-14T16:58:37.998336,1.70473923,.00046489,55.0955,221.7612,244.9793,115.0745,0,U,41550,999,6262,0,.58E-6,0
BEIDOU-2 G7 (C03),2016-037A,2026-06-17T15:35:23.787168,1.00276279,.00064237,1.7212,69.3036,357.7680,183.1395,0,U,41586,999,689,0,-.359E-5,0
EUTELSAT 117 WEST B (WAAS/PRN 131),2016-038B,2026-06-17T04:34:57.489888,1.00273582,.00003969,0.0084,149.9850,298.2334,128.9751,0,U,41589,999,3666,0,-.16E-6,0
GSAT0207 (GALILEO 15),2016-069A,2026-06-15T13:44:00.222720,1.70473545,.000529,55.4979,101.1309,329.9207,30.0086,0,U,41859,999,5937,0,-.14E-6,0
GSAT0212 (GALILEO 16),2016-069B,2026-06-17T04:27:01.265184,1.70473702,.00046204,55.4965,101.0814,0.5608,359.4079,0,U,41860,999,5965,0,-.13E-6,0
GSAT0213 (GALILEO 17),2016-069C,2026-06-15T04:57:04.571424,1.70474116,.00049587,55.4975,101.1440,312.6321,47.2844,0,U,41861,999,5948,0,-.13E-6,0
GSAT0214 (GALILEO 18),2016-069D,2026-06-14T04:18:14.499936,1.70473798,.0004255,55.4956,101.1651,319.5735,40.3509,0,U,41862,999,5959,0,-.1E-6,0
SES-15 (WAAS/PRN 133),2017-026A,2026-06-17T12:01:38.718048,1.00269254,.00006305,0.0183,336.2320,199.5890,141.1638,0,U,42709,999,743,0,.55E-6,0
QZS-2 (QZSS/PRN 194),2017-028A,2026-06-17T12:26:38.820768,1.00283788,.07593332,39.4268,243.1501,269.2718,81.7354,0,U,42738,999,762,0,-.166E-5,0
QZS-3 (QZSS/PRN 199),2017-048A,2026-06-16T20:27:45.042624,1.00276177,.00018429,0.0688,169.8241,272.7581,256.4293,0,U,42917,999,3225,0,-.351E-5,0
COSMOS 2522 (752),2017-055A,2026-06-17T02:57:03.214368,2.13100885,.00116086,64.0795,191.8866,242.1031,117.8335,0,U,42939,999,6797,0,.65E-6,0
QZS-4 (QZSS/PRN 195),2017-062A,2026-06-16T08:29:46.528800,1.00250450,.07451754,40.1083,343.4922,271.7618,273.8478,0,U,42965,999,3179,0,-.348E-5,0
BEIDOU-3 M1 (C19),2017-069A,2026-06-17T03:11:35.813760,1.86230840,.00104343,56.6923,63.0864,325.9339,34.0401,0,U,43001,999,5860,0,-.51E-6,0
BEIDOU-3 M2 (C20),2017-069B,2026-06-17T01:43:23.506176,1.86230639,.00091811,56.6907,63.1251,351.5106,8.5146,0,U,43002,999,5859,0,-.51E-6,0
